NORAD_CAT_ID,OBJECT_NAME,OBJECT_TYPE,EPOCH,MEAN_MOTION,ECCENTRICITY,INCLINATION,RA_OF_ASC_NODE,ARG_OF_PERICENTER,MEAN_ANOMALY,BSTAR,MEAN_MOTION_DOT,MEAN_MOTION_DDOT,TLE_LINE0,TLE_LINE1,TLE_LINE2,SEMIMAJOR_AXIS,PERIOD,APOGEE,PERIGEE,DECAYED
51962.0,STARLINK-3697,PAYLOAD,2023-03-24 11:54:49,15.08089275,0.0001233,53.1841,202.8741,86.1382,273.9751,0.0017729,0.00027466,0.0,0 STARLINK-3697,1 51962U 22025G   23083.49641142  .00027466  00000-0  17729-2 0  9994,2 51962  53.1841 202.8741 0001233  86.1382 273.9751 15.08089275 59089,6920.176,95.485,542.894,541.188,0.0
51962.0,STARLINK-3697,PAYLOAD,2023-03-24 13:30:15,15.08102355,0.0001387,53.1842,202.5783,95.1976,264.9174,0.0027868,0.00043451,0.0,0 STARLINK-3697,1 51962U 22025G   23083.56268387  .00043451  00000-0  27868-2 0  9995,2 51962  53.1842 202.5783 0001387  95.1976 264.9174 15.08102355 57983,6920.136,95.484,542.961,541.041,0.0
51962.0,STARLINK-3697,PAYLOAD,2023-03-24 18:16:34,15.08056685,0.0001663,53.1838,201.6874,81.987,278.131,-7.5219e-05,-1.458e-05,0.0,0 STARLINK-3697,1 51962U 22025G   23083.76150677 -.00001458  00000-0 -75219-4 0  9997,2 51962  53.1838 201.6874 0001663  81.9870 278.1310 15.08056685 59123,6920.276,95.487,543.292,540.99,0.0
51962.0,STARLINK-3697,PAYLOAD,2023-03-25 00:38:19,15.08029897,0.0001073,53.1839,200.4987,110.8541,249.2566,-0.00017819,-3.058e-05,0.0,0 STARLINK-3697,1 51962U 22025G   23084.02661507 -.00003058  00000-0 -17819-3 0  9995,2 51962  53.1839 200.4987 0001073 110.8541 249.2566 15.08029897 59169,6920.358,95.489,542.965,541.48,0.0
51962.0,STARLINK-3697,PAYLOAD,2023-03-25 16:32:41,15.08047708,0.0001644,53.1812,197.525,87.5248,272.5931,0.0022908,0.00035573,0.0,0 STARLINK-3697,1 51962U 22025G   23084.68937295  .00035573  00000-0  22908-2 0  9996,2 51962  53.1812 197.5250 0001644  87.5248 272.5931 15.08047708 59264,6920.303,95.488,543.306,541.03,0.0
51962.0,STARLINK-3697,PAYLOAD,2023-03-26 00:29:53,15.08036064,0.0002008,53.1827,196.0391,92.0745,268.0477,0.0010934,0.00016779,0.0,0 STARLINK-3697,1 51962U 22025G   23085.02075288  .00016779  00000-0  10934-2 0  9993,2 51962  53.1827 196.0391 0002008  92.0745 268.0477 15.08036064 59312,6920.339,95.488,543.593,540.814,0.0
51962.0,STARLINK-3697,PAYLOAD,2023-03-26 19:35:06,15.08059601,0.0001704,53.1795,192.4646,78.3515,281.7667,0.0010961,0.00016832,0.0,0 STARLINK-3697,1 51962U 22025G   23085.81605097  .00016832  00000-0  10961-2 0  9997,2 51962  53.1795 192.4646 0001704  78.3515 281.7667 15.08059601 58328,6920.267,95.487,543.311,540.953,0.0
51962.0,STARLINK-3697,PAYLOAD,2023-03-27 13:04:54,15.08070169,0.0001064,53.1773,189.1948,92.4836,267.6277,0.0025232,0.00039256,0.0,0 STARLINK-3697,1 51962U 22025G   23086.54507260  .00039256  00000-0  25232-2 0  9993,2 51962  53.1773 189.1948 0001064  92.4836 267.6277 15.08070169 59541,6920.234,95.486,542.836,541.363,0.0
51962.0,STARLINK-3697,PAYLOAD,2023-03-27 16:15:46,15.08079931,0.0001068,53.1774,188.6,87.5035,272.6078,0.0029029,0.00045257,0.0,0 STARLINK-3697,1 51962U 22025G   23086.67762032  .00045257  00000-0  29029-2 0  9993,2 51962  53.1774 188.6000 0001068  87.5035 272.6078 15.08079931 58455,6920.205,95.486,542.809,541.331,0.0
51962.0,STARLINK-3697,PAYLOAD,2023-03-28 12:56:26,15.0805927,0.0001107,53.1774,184.7333,112.8472,247.2636,0.001758,0.00027209,0.0,0 STARLINK-3697,1 51962U 22025G   23087.53919483  .00027209  00000-0  17580-2 0  9999,2 51962  53.1774 184.7333 0001107 112.8472 247.2636 15.08059270 59691,6920.268,95.487,542.899,541.367,0.0
51962.0,STARLINK-3697,PAYLOAD,2023-03-28 16:07:18,15.08070064,0.0001162,53.1772,184.1382,115.263,244.8482,0.0019868,0.00030813,0.0,0 STARLINK-3697,1 51962U 22025G   23087.67174206  .00030813  00000-0  19868-2 0  9996,2 51962  53.1772 184.1382 0001162 115.2630 244.8482 15.08070064 58607,6920.235,95.486,542.904,541.296,0.0
51962.0,STARLINK-3697,PAYLOAD,2023-03-29 06:26:14,15.08064393,0.0001662,53.1765,181.4626,88.3919,271.7263,0.0026253,0.00040859,0.0,0 STARLINK-3697,1 51962U 22025G   23088.26821952  .00040859  00000-0  26253-2 0  9996,2 51962  53.1765 181.4626 0001662  88.3919 271.7263 15.08064393 59802,6920.252,95.487,543.267,540.967,0.0
51962.0,STARLINK-3697,PAYLOAD,2023-03-29 12:47:58,15.08065965,0.0001454,53.1761,180.2718,84.4214,275.6943,0.0016557,0.00025608,0.0,0 STARLINK-3697,1 51962U 22025G   23088.53331579  .00025608  00000-0  16557-2 0  9998,2 51962  53.1761 180.2718 0001454  84.4214 275.6943 15.08065965 59849,6920.247,95.487,543.119,541.106,0.0
51962.0,STARLINK-3697,PAYLOAD,2023-03-29 17:34:16,15.08084942,0.0001419,53.175,179.3792,80.8219,279.2933,0.0021141,0.00032828,0.0,0 STARLINK-3697,1 51962U 22025G   23088.73213480  .00032828  00000-0  21141-2 0  9997,2 51962  53.1750 179.3792 0001419  80.8219 279.2933 15.08084942 58769,6920.189,95.485,543.036,541.072,0.0
51962.0,STARLINK-3697,PAYLOAD,2023-03-30 06:17:46,15.08027416,0.0001022,53.1755,177.0011,114.9551,245.1547,0.00092226,0.00014099,0.0,0 STARLINK-3697,1 51962U 22025G   23089.26234455  .00014099  00000-0  92226-3 0  9994,2 51962  53.1755 177.0011 0001022 114.9551 245.1547 15.08027416 59959,6920.365,95.489,542.938,541.523,0.0
51962.0,STARLINK-3697,PAYLOAD,2023-03-30 17:25:49,15.08075469,0.0001204,53.1743,174.9185,103.9885,256.124,0.0034319,0.00053613,0.0,0 STARLINK-3697,1 51962U 22025G   23089.72626645  .00053613  00000-0  34319-2 0  9994,2 51962  53.1743 174.9185 0001204 103.9885 256.1240 15.08075469 60027,6920.218,95.486,542.916,541.25,0.0
51962.0,STARLINK-3697,PAYLOAD,2023-03-31 06:09:19,15.08061514,0.0001279,53.1742,172.5391,99.4167,260.6969,0.0020538,0.00031859,0.0,0 STARLINK-3697,1 51962U 22025G   23090.25647001  .00031859  00000-0  20538-2 0  9999,2 51962  53.1742 172.5391 0001279  99.4167 260.6969 15.08061514 60106,6920.261,95.487,543.011,541.241,0.0
51962.0,STARLINK-3697,PAYLOAD,2023-03-31 14:06:30,15.08050284,0.0001269,53.1734,171.052,96.1349,263.9787,0.0024405,0.00037932,0.0,0 STARLINK-3697,1 51962U 22025G   23090.58784827  .00037932  00000-0  24405-2 0  9998,2 51962  53.1734 171.0520 0001269  96.1349 263.9787 15.08050284 60151,6920.295,95.488,543.038,541.282,0.0
51962.0,STARLINK-3697,PAYLOAD,2023-03-31 22:03:41,15.08031229,0.0001573,53.1734,169.5657,92.3723,267.7448,0.0027287,0.0004245,0.0,0 STARLINK-3697,1 51962U 22025G   23090.91923006  .00042450  00000-0  27287-2 0  9991,2 51962  53.1734 169.5657 0001573  92.3723 267.7448 15.08031229 60206,6920.354,95.489,543.307,541.13,0.0
51962.0,STARLINK-3697,PAYLOAD,2023-04-01 12:22:36,15.08051813,0.0001578,53.173,166.8884,91.7353,268.3819,0.0015123,0.00023349,0.0,0 STARLINK-3697,1 51962U 22025G   23091.51570502  .00023349  00000-0  15123-2 0  9999,2 51962  53.1730 166.8884 0001578  91.7353 268.3819 15.08051813 59186,6920.291,95.487,543.248,541.064,0.0
51962.0,STARLINK-3697,PAYLOAD,2023-04-01 15:33:29,15.08061748,0.000166,53.1731,166.2931,90.8425,269.2757,0.0017336,0.00026828,0.0,0 STARLINK-3697,1 51962U 22025G   23091.64825328  .00026828  00000-0  17336-2 0  9995,2 51962  53.1731 166.2931 0001660  90.8425 269.2757 15.08061748 60312,6920.26,95.487,543.274,540.976,0.0
51962.0,STARLINK-3697,PAYLOAD,2023-04-01 21:55:13,15.08044356,9.41e-05,53.1725,165.1039,228.6238,131.4672,0.00033463,4.93e-05,0.0,0 STARLINK-3697,1 51962U 22025G   23091.91334680  .00004930  00000-0  33463-3 0  9991,2 51962  53.1725 165.1039 0000941 228.6238 131.4672 15.08044356 59248,6920.313,95.488,542.83,541.527,0.0
51962.0,STARLINK-3697,PAYLOAD,2023-04-02 13:49:35,15.0807089,0.0001355,53.17,162.1274,95.2177,264.8969,0.0025552,0.00039761,0.0,0 STARLINK-3697,1 51962U 22025G   23092.57610100  .00039761  00000-0  25552-2 0  9997,2 51962  53.1700 162.1274 0001355  95.2177 264.8969 15.08070890 59342,6920.232,95.486,543.035,541.16,0.0
51962.0,STARLINK-3697,PAYLOAD,2023-04-02 17:00:27,15.08077476,0.0001411,53.1697,161.5323,95.034,265.0813,0.0024788,0.00038564,0.0,0 STARLINK-3697,1 51962U 22025G   23092.70864870  .00038564  00000-0  24788-2 0  9997,2 51962  53.1697 161.5323 0001411  95.0340 265.0813 15.08077476 60472,6920.212,95.486,543.054,541.101,0.0
51962.0,STARLINK-3697,PAYLOAD,2023-04-02 21:46:46,15.08053171,0.0001742,53.17,160.6418,75.9408,284.1777,0.0014799,0.00022842,0.0,0 STARLINK-3697,1 51962U 22025G   23092.90747947  .00022842  00000-0  14799-2 0  9997,2 51962  53.1700 160.6418 0001742  75.9408 284.1777 15.08053171 59397,6920.286,95.487,543.357,540.946,0.0
51962.0,STARLINK-3697,PAYLOAD,2023-04-03 10:30:15,15.0805035,0.0001119,53.1681,158.2611,83.5437,276.5682,0.0019042,0.00029498,0.0,0 STARLINK-3697,1 51962U 22025G   23093.43767905  .00029498  00000-0  19042-2 0  9992,2 51962  53.1681 158.2611 0001119  83.5437 276.5682 15.08050350 60587,6920.295,95.488,542.934,541.386,0.0
51962.0,STARLINK-3697,PAYLOAD,2023-04-03 21:38:18,15.08057072,0.0001016,53.1679,156.1792,72.8304,287.2798,0.0015671,0.00024212,0.0,0 STARLINK-3697,1 51962U 22025G   23093.90160300  .00024212  00000-0  15671-2 0  9993,2 51962  53.1679 156.1792 0001016  72.8304 287.2798 15.08057072 60654,6920.275,95.487,542.843,541.436,0.0
51962.0,STARLINK-3697,PAYLOAD,2023-04-04 10:21:47,15.08061747,0.0001729,53.168,153.7963,56.5987,303.517,0.00090379,0.00013824,0.0,0 STARLINK-3697,1 51962U 22025G   23094.43180080  .00013824  00000-0  90379-3 0  9995,2 51962  53.1680 153.7963 0001729  56.5987 303.5170 15.08061747 60735,6920.26,95.487,543.322,540.929,0.0
51962.0,STARLINK-3697,PAYLOAD,2023-04-04 15:08:05,15.08061374,0.0001856,53.1683,152.9061,53.5334,306.5828,0.00095253,0.00014586,0.0,0 STARLINK-3697,1 51962U 22025G   23094.63062444  .00014586  00000-0  95253-3 0  9992,2 51962  53.1683 152.9061 0001856  53.5334 306.5828 15.08061374 59650,6920.261,95.487,543.411,540.842,0.0
51962.0,STARLINK-3697,PAYLOAD,2023-04-05 10:13:20,15.08043569,0.0001434,53.1658,149.3363,82.6579,277.4575,0.00016962,2.357e-05,0.0,0 STARLINK-3697,1 51962U 22025G   23095.42592653  .00002357  00000-0  16962-3 0  9993,2 51962  53.1658 149.3363 0001434  82.6579 277.4575 15.08043569 59777,6920.316,95.488,543.173,541.188,0.0
